SL-16 R/B               
1 25400U 98043G   26033.57963941  .00000068  00000+0  47396-4 0  9999
2 25400  98.8196 346.7074 0010822 113.6829 246.5487 14.26040813433980
SL-16 R/B               
1 25407U 98045B   26033.60976039 -.00000223  00000+0 -88740-4 0  9997
2 25407  71.0093 255.3468 0005134  74.0016 286.1672 14.16186067422138
ISS (ZARYA)             
1 25544U 98067A   26033.53325067  .00009405  00000+0  18249-3 0  9999
2 25544  51.6312 246.1482 0011108  57.0277 303.1777 15.48343227550889
CZ-4B R/B               
1 25732U 99025C   26033.62281951  .00000076  00000+0  57330-4 0  9996
2 25732  98.6694  78.7240 0038203  86.0528  77.2511 14.18258003383195
OKEAN-O                 
1 25860U 99039A   26033.57030382  .00000764  00000+0  10716-3 0  9997
2 25860  97.9517  93.8054 0001928  91.6351 268.5082 14.80274604429197
SL-16 R/B               
1 25861U 99039B   26033.58339116  .00000647  00000+0  88976-4 0  9990
2 25861  98.0040  92.7186 0015123  16.6868 343.4839 14.81679353431666
DELTA 2 R/B             
1 25876U 99041E   26033.54044265  .00002208  00000+0  39258-3 0  9996
2 25876  51.7643  81.6412 0502568 244.5784 110.2333 14.11686937358069
HELIOS 1B               
1 25977U 99064A   26033.46839012  .00002095  00000+0  23725-3 0  9992
2 25977  98.1736 294.6711 0001760 123.5588 236.5796 14.87545550680020
TERRA                   
1 25994U 99068A   26033.60042415  .00000502  00000+0  11142-3 0  9995
2 25994  97.9666  88.3624 0001093 315.3686 206.8834 14.60974514389956
SL-16 R/B               
1 26070U 00006B   26033.61604750  .00000148  00000+0  99282-4 0  9990
2 26070  71.0025 171.5824 0018497 239.0667 120.8638 14.15819516343595
TITAN 4B R/B            
1 26474U 00047B   26033.57610504  .00003837  00000+0  24502-3 0  9992
2 26474  67.9900 139.2252 0036720  79.0065 281.5211 15.09262400387619
ENVISAT                 
1 27386U 02009A   26033.65927380  .00000130  00000+0  55802-4 0  9998
2 27386  98.3671 348.1041 0001276  91.6755  81.3598 14.39022980254139
