CCSDS_OMM_VERS = 2.0
CREATION_DATE  = 
ORIGINATOR     = 

OBJECT_NAME    = SL-16 R/B
OBJECT_ID      = 1998-043G
CENTER_NAME    = EARTH
REF_FRAME      = TEME
TIME_SYSTEM    = UTC
MEAN_ELEMENT_THEORY = SGP/SGP4

EPOCH          = 2026-02-02T13:54:40.845024
MEAN_MOTION    = 14.26040813
ECCENTRICITY   = .00108223
INCLINATION    = 98.8196
RA_OF_ASC_NODE = 346.7074
ARG_OF_PERICENTER = 113.6829
MEAN_ANOMALY   = 246.5487

EPHEMERIS_TYPE = 0
CLASSIFICATION_TYPE = U
NORAD_CAT_ID   = 25400
ELEMENT_SET_NO = 999
REV_AT_EPOCH   = 43398
BSTAR          = .47395792E-4
MEAN_MOTION_DOT = .68E-6
MEAN_MOTION_DDOT = 0

CCSDS_OMM_VERS = 2.0
CREATION_DATE  = 
ORIGINATOR     = 

OBJECT_NAME    = SL-16 R/B
OBJECT_ID      = 1998-045B
CENTER_NAME    = EARTH
REF_FRAME      = TEME
TIME_SYSTEM    = UTC
MEAN_ELEMENT_THEORY = SGP/SGP4

EPOCH          = 2026-02-02T14:38:03.297696
MEAN_MOTION    = 14.16186067
ECCENTRICITY   = .00051341
INCLINATION    = 71.0093
RA_OF_ASC_NODE = 255.3468
ARG_OF_PERICENTER = 74.0016
MEAN_ANOMALY   = 286.1672

EPHEMERIS_TYPE = 0
CLASSIFICATION_TYPE = U
NORAD_CAT_ID   = 25407
ELEMENT_SET_NO = 999
REV_AT_EPOCH   = 42213
BSTAR          = -.8874033E-4
MEAN_MOTION_DOT = -.223E-5
MEAN_MOTION_DDOT = 0

CCSDS_OMM_VERS = 2.0
CREATION_DATE  = 
ORIGINATOR     = 

OBJECT_NAME    = ISS (ZARYA)
OBJECT_ID      = 1998-067A
CENTER_NAME    = EARTH
REF_FRAME      = TEME
TIME_SYSTEM    = UTC
MEAN_ELEMENT_THEORY = SGP/SGP4

EPOCH          = 2026-02-02T12:47:52.857888
MEAN_MOTION    = 15.48343227
ECCENTRICITY   = .00111084
INCLINATION    = 51.6312
RA_OF_ASC_NODE = 246.1482
ARG_OF_PERICENTER = 57.0277
MEAN_ANOMALY   = 303.1777

EPHEMERIS_TYPE = 0
CLASSIFICATION_TYPE = U
NORAD_CAT_ID   = 25544
ELEMENT_SET_NO = 999
REV_AT_EPOCH   = 55088
BSTAR          = .18248934E-3
MEAN_MOTION_DOT = .9405E-4
MEAN_MOTION_DDOT = 0

CCSDS_OMM_VERS = 2.0
CREATION_DATE  = 
ORIGINATOR     = 

OBJECT_NAME    = CZ-4B R/B
OBJECT_ID      = 1999-025C
CENTER_NAME    = EARTH
REF_FRAME      = TEME
TIME_SYSTEM    = UTC
MEAN_ELEMENT_THEORY = SGP/SGP4

EPOCH          = 2026-02-02T14:56:51.605664
MEAN_MOTION    = 14.18258003
ECCENTRICITY   = .00382038
INCLINATION    = 98.6694
RA_OF_ASC_NODE = 78.7240
ARG_OF_PERICENTER = 86.0528
MEAN_ANOMALY   = 77.2511

EPHEMERIS_TYPE = 0
CLASSIFICATION_TYPE = U
NORAD_CAT_ID   = 25732
ELEMENT_SET_NO = 999
REV_AT_EPOCH   = 38319
BSTAR          = .57330034E-4
MEAN_MOTION_DOT = .76E-6
MEAN_MOTION_DDOT = 0

CCSDS_OMM_VERS = 2.0
CREATION_DATE  = 
ORIGINATOR     = 

OBJECT_NAME    = OKEAN-O
OBJECT_ID      = 1999-039A
CENTER_NAME    = EARTH
REF_FRAME      = TEME
TIME_SYSTEM    = UTC
MEAN_ELEMENT_THEORY = SGP/SGP4

EPOCH          = 2026-02-02T13:41:14.250048
MEAN_MOTION    = 14.80274604
ECCENTRICITY   = .00019281
INCLINATION    = 97.9517
RA_OF_ASC_NODE = 93.8054
ARG_OF_PERICENTER = 91.6351
MEAN_ANOMALY   = 268.5082

EPHEMERIS_TYPE = 0
CLASSIFICATION_TYPE = U
NORAD_CAT_ID   = 25860
ELEMENT_SET_NO = 999
REV_AT_EPOCH   = 42919
BSTAR          = .10715708E-3
MEAN_MOTION_DOT = .764E-5
MEAN_MOTION_DDOT = 0

CCSDS_OMM_VERS = 2.0
CREATION_DATE  = 
ORIGINATOR     = 

OBJECT_NAME    = SL-16 R/B
OBJECT_ID      = 1999-039B
CENTER_NAME    = EARTH
REF_FRAME      = TEME
TIME_SYSTEM    = UTC
MEAN_ELEMENT_THEORY = SGP/SGP4

EPOCH          = 2026-02-02T14:00:04.996224
MEAN_MOTION    = 14.81679353
ECCENTRICITY   = .00151231
INCLINATION    = 98.0040
RA_OF_ASC_NODE = 92.7186
ARG_OF_PERICENTER = 16.6868
MEAN_ANOMALY   = 343.4839

EPHEMERIS_TYPE = 0
CLASSIFICATION_TYPE = U
NORAD_CAT_ID   = 25861
ELEMENT_SET_NO = 999
REV_AT_EPOCH   = 43166
BSTAR          = .88975713E-4
MEAN_MOTION_DOT = .647E-5
MEAN_MOTION_DDOT = 0

CCSDS_OMM_VERS = 2.0
CREATION_DATE  = 
ORIGINATOR     = 

OBJECT_NAME    = DELTA 2 R/B
OBJECT_ID      = 1999-041E
CENTER_NAME    = EARTH
REF_FRAME      = TEME
TIME_SYSTEM    = UTC
MEAN_ELEMENT_THEORY = SGP/SGP4

EPOCH          = 2026-02-02T12:58:14.244960
MEAN_MOTION    = 14.11686937
ECCENTRICITY   = .05025681
INCLINATION    = 51.7643
RA_OF_ASC_NODE = 81.6412
ARG_OF_PERICENTER = 244.5784
MEAN_ANOMALY   = 110.2333

EPHEMERIS_TYPE = 0
CLASSIFICATION_TYPE = U
NORAD_CAT_ID   = 25876
ELEMENT_SET_NO = 999
REV_AT_EPOCH   = 35806
BSTAR          = .39258156E-3
MEAN_MOTION_DOT = .2208E-4
MEAN_MOTION_DDOT = 0

CCSDS_OMM_VERS = 2.0
CREATION_DATE  = 
ORIGINATOR     = 

OBJECT_NAME    = HELIOS 1B
OBJECT_ID      = 1999-064A
CENTER_NAME    = EARTH
REF_FRAME      = TEME
TIME_SYSTEM    = UTC
MEAN_ELEMENT_THEORY = SGP/SGP4

EPOCH          = 2026-02-02T11:14:28.906368
MEAN_MOTION    = 14.87545550
ECCENTRICITY   = .00017606
INCLINATION    = 98.1736
RA_OF_ASC_NODE = 294.6711
ARG_OF_PERICENTER = 123.5588
MEAN_ANOMALY   = 236.5796

EPHEMERIS_TYPE = 0
CLASSIFICATION_TYPE = U
NORAD_CAT_ID   = 25977
ELEMENT_SET_NO = 999
REV_AT_EPOCH   = 68002
BSTAR          = .23724772E-3
MEAN_MOTION_DOT = .2095E-4
MEAN_MOTION_DDOT = 0

CCSDS_OMM_VERS = 2.0
CREATION_DATE  = 
ORIGINATOR     = 

OBJECT_NAME    = TERRA
OBJECT_ID      = 1999-068A
CENTER_NAME    = EARTH
REF_FRAME      = TEME
TIME_SYSTEM    = UTC
MEAN_ELEMENT_THEORY = SGP/SGP4

EPOCH          = 2026-02-02T14:24:36.646560
MEAN_MOTION    = 14.60974514
ECCENTRICITY   = .00010938
INCLINATION    = 97.9666
RA_OF_ASC_NODE = 88.3624
ARG_OF_PERICENTER = 315.3686
MEAN_ANOMALY   = 206.8834

EPHEMERIS_TYPE = 0
CLASSIFICATION_TYPE = U
NORAD_CAT_ID   = 25994
ELEMENT_SET_NO = 999
REV_AT_EPOCH   = 38995
BSTAR          = .11141742E-3
MEAN_MOTION_DOT = .502E-5
MEAN_MOTION_DDOT = 0

CCSDS_OMM_VERS = 2.0
CREATION_DATE  = 
ORIGINATOR     = 

OBJECT_NAME    = SL-16 R/B
OBJECT_ID      = 2000-006B
CENTER_NAME    = EARTH
REF_FRAME      = TEME
TIME_SYSTEM    = UTC
MEAN_ELEMENT_THEORY = SGP/SGP4

EPOCH          = 2026-02-02T14:47:06.504000
MEAN_MOTION    = 14.15819516
ECCENTRICITY   = .00184973
INCLINATION    = 71.0025
RA_OF_ASC_NODE = 171.5824
ARG_OF_PERICENTER = 239.0667
MEAN_ANOMALY   = 120.8638

EPHEMERIS_TYPE = 0
CLASSIFICATION_TYPE = U
NORAD_CAT_ID   = 26070
ELEMENT_SET_NO = 999
REV_AT_EPOCH   = 34359
BSTAR          = .9928196E-4
MEAN_MOTION_DOT = .148E-5
MEAN_MOTION_DDOT = 0

CCSDS_OMM_VERS = 2.0
CREATION_DATE  = 
ORIGINATOR     = 

OBJECT_NAME    = TITAN 4B R/B
OBJECT_ID      = 2000-047B
CENTER_NAME    = EARTH
REF_FRAME      = TEME
TIME_SYSTEM    = UTC
MEAN_ELEMENT_THEORY = SGP/SGP4

EPOCH          = 2026-02-02T13:49:35.475456
MEAN_MOTION    = 15.09262400
ECCENTRICITY   = .00367208
INCLINATION    = 67.9900
RA_OF_ASC_NODE = 139.2252
ARG_OF_PERICENTER = 79.0065
MEAN_ANOMALY   = 281.5211

EPHEMERIS_TYPE = 0
CLASSIFICATION_TYPE = U
NORAD_CAT_ID   = 26474
ELEMENT_SET_NO = 999
REV_AT_EPOCH   = 38761
BSTAR          = .2450199E-3
MEAN_MOTION_DOT = .3837E-4
MEAN_MOTION_DDOT = 0

CCSDS_OMM_VERS = 2.0
CREATION_DATE  = 
ORIGINATOR     = 

OBJECT_NAME    = ENVISAT
OBJECT_ID      = 2002-009A
CENTER_NAME    = EARTH
REF_FRAME      = TEME
TIME_SYSTEM    = UTC
MEAN_ELEMENT_THEORY = SGP/SGP4

EPOCH          = 2026-02-02T15:49:21.256320
MEAN_MOTION    = 14.39022980
ECCENTRICITY   = .00012764
INCLINATION    = 98.3671
RA_OF_ASC_NODE = 348.1041
ARG_OF_PERICENTER = 91.6755
MEAN_ANOMALY   = 81.3598

EPHEMERIS_TYPE = 0
CLASSIFICATION_TYPE = U
NORAD_CAT_ID   = 27386
ELEMENT_SET_NO = 999
REV_AT_EPOCH   = 25413
BSTAR          = .55802008E-4
MEAN_MOTION_DOT = .13E-5
MEAN_MOTION_DDOT = 0

